[{"OBJECT_NAME":"STARLINK-3247","OBJECT_ID":"2021-115Z","EPOCH":"2026-03-09T10:27:44.033184","MEAN_MOTION":15.08838881,"ECCENTRICITY":0.00014683,"INCLINATION":53.2179,"RA_OF_ASC_NODE":150.2605,"ARG_OF_PERICENTER":97.1271,"MEAN_ANOMALY":262.9888,"EPHEMERIS_TYPE":0,"CLASSIFICATION_TYPE":"U","NORAD_CAT_ID":49747,"ELEMENT_SET_NO":999,"REV_AT_EPOCH":23549,"BSTAR":-6.0352922e-5,"MEAN_MOTION_DOT":-1.248e-5,"MEAN_MOTION_DDOT":0},{"OBJECT_NAME":"CZ-4C R\/B","OBJECT_ID":"2018-031F","EPOCH":"2026-03-09T18:17:36.260736","MEAN_MOTION":15.22605712,"ECCENTRICITY":0.00804945,"INCLINATION":98.1311,"RA_OF_ASC_NODE":341.6719,"ARG_OF_PERICENTER":21.712,"MEAN_ANOMALY":338.7495,"EPHEMERIS_TYPE":0,"CLASSIFICATION_TYPE":"U","NORAD_CAT_ID":43264,"ELEMENT_SET_NO":999,"REV_AT_EPOCH":43612,"BSTAR":0.00044368098,"MEAN_MOTION_DOT":0.00011203,"MEAN_MOTION_DDOT":0}]
